LUCH-5B                 
1 38977U 12061A   24017.90813072 -.00000137  00000+0  00000+0 0  9998
2 38977   8.5555  58.0152 0003137 181.9029 187.4927  1.00270934 40782
YAMAL 300K              
1 38978U 12061B   24018.62494087  .00000076  00000+0  00000+0 0  9991
2 38978   0.0171  57.8052 0001189 304.1404 163.4898  1.00271228 40802
STAR ONE C3             
1 38991U 12062A   24018.51229459 -.00000244  00000+0  00000+0 0  9992
2 38991   0.0156  58.0807 0002110 235.0285 293.7083  1.00268973 40924
EUTELSAT 21B            
1 38992U 12062B   24018.53152663  .00000135  00000+0  00000+0 0  9995
2 38992   0.0652  11.9658 0002515 280.1945  38.2121  1.00272033 40995
ECHOSTAR 16             
1 39008U 12065A   24018.22851330 -.00000277  00000+0  00000+0 0  9998
2 39008   0.0181  55.0359 0002054 241.2793 201.5675  1.00271147 40797
CHINASAT 12 (ZX 12)     
1 39017U 12067A   24018.54458005 -.00000202  00000+0  00000+0 0  9995
2 39017   0.0327 107.9323 0003480 187.1745 105.8717  1.00271172 40674
EUTELSAT 70B            
1 39020U 12069A   24018.54127318 -.00000039  00000+0  00000+0 0  9999
2 39020   0.0611  12.2919 0004050 257.6376 112.8480  1.00271546 40670
YAMAL 402               
1 39022U 12070A   24018.46652062  .00000090  00000+0  00000+0 0  9999
2 39022   0.0161  69.5707 0004655 224.3258  46.3179  1.00272089 40560
SKYNET 5D               
1 39034U 12075A   24018.53770524  .00000104  00000+0  00000+0 0  9995
2 39034   0.0651   8.3079 0003703 285.1050  70.2830  1.00272055 40325
MEXSAT 3                
1 39035U 12075B   24018.47160248 -.00000021  00000+0  00000+0 0  9994
2 39035   0.0076  28.0032 0002210 281.7907 222.5179  1.00271031 40646
TDRS 11                 
1 39070U 13004A   24018.53878039  .00000084  00000+0  00000+0 0  9995
2 39070   2.6977   6.1395 0003602  27.7744 103.2759  1.00278772 37863
AMAZONAS 3              
1 39078U 13006A   24018.51507934 -.00000277  00000+0  00000+0 0  9991
2 39078   0.0426 225.2359 0004160  41.1904 335.4260  1.00270253 36078
AZERSPACE 1             
1 39079U 13006B   24018.53631288  .00000138  00000+0  00000+0 0  9999
2 39079   0.0181  50.4841 0001611 271.4415  34.5393  1.00270813 39972
SBIRS GEO-2 (USA 241)   
1 39120U 13011A   24018.51960451 -.00000254  00000+0  00000+0 0  9997
2 39120   2.7080  44.1930 0002444 250.3462 331.9233  1.00271283 39708
EUTELSAT 117 WEST A     
1 39122U 13012A   24018.57210410 -.00000007  00000+0  00000+0 0  9995
2 39122   0.0418 282.7349 0002875  15.3868 268.4836  1.00269570 39605
ANIK G1                 
1 39127U 13014A   24018.57669277 -.00000069  00000+0  00000+0 0  9999
2 39127   0.0137 336.7077 0003133 313.0632 287.9907  1.00271433 39427
CHINASAT 11 (ZX 11)     
1 39157U 13020A   24018.54666859 -.00000285  00000+0  00000+0 0  9999
2 39157   0.0244  64.2446 0003805 240.1524 107.7296  1.00266627 39067
EUTELSAT 7B             
1 39163U 13022A   24018.52848083  .00000052  00000+0  00000+0 0  9998
2 39163   0.0724 339.3143 0005359 352.4825 342.8539  1.00269858 39133
WGS F5 (USA 243)        
1 39168U 13024A   24018.51673278 -.00000280  00000+0  00000+0 0  9990
2 39168   0.0237  66.5530 0000489 239.5555 304.8110  1.00268752 38998
SES-6                   
1 39172U 13026A   24018.51908237 -.00000256  00000+0  00000+0 0  9996
2 39172   0.0361 309.2911 0002605 345.6513 328.8212  1.00271262 38894
IRNSS-1A                
1 39199U 13034A   24016.74756194  .00000065  00000+0  00000+0 0  9997
2 39199  33.7321  76.7000 0021456 188.7939 174.2981  1.00274097 38525
MUOS-2                  
1 39206U 13036A   24018.62552088  .00000068  00000+0  00000+0 0  9996
2 39206   3.3818  38.1709 0054768 184.1845 303.3241  1.00272040 38366
ALPHASAT                
1 39215U 13038A   24018.53213580  .00000137  00000+0  00000+0 0  9996
2 39215   2.8665   8.7967 0002119 280.8365  44.2067  1.00270271 35181
INSAT-3D                
1 39216U 13038B   24018.54353578 -.00000151  00000+0  00000+0 0  9997
2 39216   0.0376 238.7101 0003112  42.9198 113.5405  1.00271385 38244
WGS F6 (USA 244)        
1 39222U 13041A   24018.56143924  .00000094  00000+0  00000+0 0  9997
2 39222   0.0191  70.0603 0000634 208.0488 266.2478  1.00272483 37226
ES'HAIL 1               
1 39233U 13044A   24018.53213580  .00000148  00000+0  00000+0 0  9995
2 39233   0.0487 353.7577 0002717 309.1187  31.5910  1.00269095 37791
GSAT-7                  
1 39234U 13044B   24018.54196938 -.00000072  00000+0  00000+0 0  9991
2 39234   0.0383  96.8054 0009906 178.7184 110.9928  1.00271076 36495
AMOS-4                  
1 39237U 13045A   24018.54014189  .00000012  00000+0  00000+0 0  9995
2 39237   0.0543 264.3445 0002970  52.8558  59.6891  1.00271290 38121
AEHF-3 (USA 246)        
1 39256U 13050A   24018.54944519  .00000136  00000+0  00000+0 0  9998
2 39256   3.1019  73.5380 0052770 180.6652 265.9526  1.00272207 36843
ASTRA 2E                
1 39285U 13056A   24018.53283198  .00000155  00000+0  00000+0 0  9995
2 39285   0.0590 345.3834 0002759 319.6765  32.6504  1.00269722 37608
FM-6                    
1 39360U 13058A   24018.57210368 -.00000013  00000+0  00000+0 0  9998
2 39360   0.0387  80.0638 0000351 157.7894 329.3981  1.00274621 37510
RADUGA-1M 3             
1 39375U 13062A   24018.46251758  .00000157  00000+0  00000+0 0  9993
2 39375   3.7123  83.1283 0000851  48.6564 187.0706  1.00273064 37278
SES-8                   
1 39460U 13071A   24018.54605943 -.00000265  00000+0  00000+0 0  9997
2 39460   0.0563 257.9955 0000744  49.4011 101.6173  1.00273378 35596
INMARSAT 5-F1           
1 39476U 13073A   24018.53961975  .00000033  00000+0  00000+0 0  9997
2 39476   0.0191  62.2631 0000148 276.3264  35.6995  1.00270811 36753
TKSAT-1 (TUPAC KATARI)  
1 39481U 13075A   24018.50985796 -.00000190  00000+0  00000+0 0  9994
2 39481   0.0229 149.1733 0003287 148.9027 275.6563  1.00272284 36761
EXPRESS-AM5             
1 39487U 13077A   24018.34016354 -.00000276  00000+0  00000+0 0  9994
2 39487   0.0142 355.7052 0001931 345.6332  38.3813  1.00271112 37525
GSAT-14                 
1 39498U 14001A   24018.54196938 -.00000072  00000+0  00000+0 0  9997
2 39498   0.0164  75.7479 0007001 201.1224 109.6585  1.00271247 36552
THAICOM 6               
1 39500U 14002A   24018.54283958 -.00000116  00000+0  00000+0 0  9990
2 39500   0.0619 111.5403 0000796 176.8944 102.8776  1.00272354 36623
TDRS 12                 
1 39504U 14004A   24018.58100841 -.00000263  00000+0  00000+0 0  9992
2 39504   3.5569 359.7392 0003050 242.9196  43.0920  1.00268538 35447
ABS-2                   
1 39508U 14006A   24018.54214340 -.00000081  00000+0  00000+0 0  9992
2 39508   0.0154  35.0178 0003449 250.9028 101.5935  1.00271306 36448
ATHENA-FIDUS            
1 39509U 14006B   24018.53474647  .00000159  00000+0  00000+0 0  9995
2 39509   0.0214 119.6466 0001161 194.1336  33.9434  1.00272840 36249
TURKSAT 4A              
1 39522U 14007A   24018.53552969  .00000151  00000+0  00000+0 0  9997
2 39522   0.0819 263.1577 0005135  21.6174  67.4572  1.00274750 36148
EXPRESS-AT1             
1 39612U 14010A   24018.46669466  .00000083  00000+0  00000+0 0  9998
2 39612   0.0209  49.2855 0000450 175.1120 116.9774  1.00270724 35986
EXPRESS-AT2             
1 39613U 14010B   24018.60674075 -.00000277  00000+0  00000+0 0  9993
2 39613   0.0241 294.5506 0001556   4.0342 177.1708  1.00271216 35674
AMAZONAS 4A             
1 39616U 14011A   24018.51246865 -.00000247  00000+0  00000+0 0  9996
2 39616   0.0422 218.3664 0003802  63.9793 305.4994  1.00274274 35879
ASTRA 5B                
1 39617U 14011B   24018.53187472  .00000142  00000+0  00000+0 0  9990
2 39617   0.0948 294.9347 0004349 352.7388  44.7272  1.00272880 35836
IRNSS-1B                
1 39635U 14017A   24016.74756194  .00000122  00000+0  00000+0 0  9998
2 39635  29.2824 255.3927 0016955 180.6858   3.8030  1.00272328 35939
LUCH-5V                 
1 39727U 14023A   24018.54605943 -.00000266  00000+0  00000+0 0  9992
2 39727   2.9224  76.8537 0003500 226.4573 105.3659  1.00275109 35521
KAZSAT-3                
1 39728U 14023B   24018.46721681  .00000065  00000+0  00000+0 0  9998
2 39728   0.0154  59.7109 0000719 308.5466 335.8233  1.00273097 33610
EUTELSAT 3B             
1 39773U 14030A   24018.31292542  .00000024  00000+0  00000+0 0  9994
2 39773   0.0596  13.1315 0004968 226.7529 353.0490  1.00271203 35238
ASIASAT 8 (AMOS-7)      
1 40107U 14046A   24018.31153306 -.00000029  00000+0  00000+0 0  9994
2 40107   0.0510 259.2958 0002003  40.8786 285.2947  1.00271383 93316
ASIASAT 6               
1 40141U 14052A   24018.57484083 -.00000358  00000+0  00000+0 0  9991
2 40141   0.0154 310.7557 0000657  10.0451 123.4931  1.00269299 34232
OPTUS 10                
1 40146U 14054A   24017.77041473 -.00000143  00000+0  00000+0 0  9993
2 40146   0.1022  12.2499 0002836 259.9619 277.7883  1.00271178 34285
MEASAT-3B               
1 40147U 14054B   24018.54536325 -.00000237  00000+0  00000+0 0  9999
2 40147   0.0282   4.5206 0002331 349.2613  51.4853  1.00270825 34080
LUCH (OLYMP-K 1)        
1 40258U 14058A   24018.66680347 -.00000136  00000+0  00000+0 0  9991
2 40258   0.0364 110.3074 0001075 192.9355  36.2812  1.00272067 34102
HIMAWARI-8              
1 40267U 14060A   24018.60674091 -.00000271  00000+0  00000+0 0  9997
2 40267   0.0386 215.9912 0001092  74.3727 186.2106  1.00270578 33931
IRNSS-1C                
1 40269U 14061A   24018.32885059 -.00000158  00000+0  00000+0 0  9991
2 40269   4.2970 108.7615 0017475   3.0696 206.7067  1.00268073 33855
INTELSAT 30 (IS-30)     
1 40271U 14062A   24018.36505205 -.00000146  00000+0  00000+0 0  9998
2 40271   0.0091  41.8546 0001017 322.1006 149.6317  1.00271497 33768
ARSAT 1                 
1 40272U 14062B   24018.60716255 -.00000254  00000+0  00000+0 0  9995
2 40272   0.0514 287.9078 0001928 355.5616 340.7892  1.00270365 33787
